OBJECT_NAME,OBJECT_ID,EPOCH,MEAN_MOTION,ECCENTRICITY,INCLINATION,RA_OF_ASC_NODE,ARG_OF_PERICENTER,MEAN_ANOMALY,EPHEMERIS_TYPE,CLASSIFICATION_TYPE,NORAD_CAT_ID,ELEMENT_SET_NO,REV_AT_EPOCH,BSTAR,MEAN_MOTION_DOT,MEAN_MOTION_DDOT
STARLINK-37970,2026-147C,2026-07-11T14:56:48.687072,15.80820936,.0001188,97.2833,228.8050,99.0020,261.1383,0,U,69706,999,329,.10251E-2,.200849E-2,0
STARLINK-37975,2026-147D,2026-07-11T14:55:43.163040,15.80865083,.0001669,97.2849,228.8069,83.5263,276.6195,0,U,69707,999,329,.80001E-3,.156224E-2,0
STARLINK-37963,2026-147F,2026-07-11T14:53:34.095264,15.80841083,.0001808,97.2827,228.8078,77.7244,282.4227,0,U,69709,999,329,.76848E-3,.149787E-2,0
STARLINK-37969,2026-147G,2026-07-11T14:52:28.864128,15.80805194,.0001364,97.2839,228.8109,119.2681,240.8724,0,U,69710,999,329,.94976E-3,.185614E-2,0
STARLINK-37956,2026-147H,2026-07-11T14:51:24.035616,15.80815998,.0001328,97.2840,228.8115,109.1373,251.0039,0,U,69711,999,329,.94926E-3,.185605E-2,0
STARLINK-38043,2026-147J,2026-07-11T14:50:19.394592,15.80809006,.0001958,97.2830,228.8125,70.7573,289.3907,0,U,69712,999,329,.91541E-3,.17879E-2,0
STARLINK-38020,2026-147K,2026-07-11T14:49:12.814752,15.80900509,.0000736,97.2834,228.8161,76.1831,283.9519,0,U,69713,999,329,.11659E-2,.230058E-2,0
STARLINK-38059,2026-147L,2026-07-11T14:48:09.057600,15.80848920,.0001502,97.2844,228.8134,95.7332,264.4107,0,U,69714,999,329,.63236E-3,.12289E-2,0
STARLINK-38061,2026-147M,2026-07-11T14:47:03.918048,15.80779276,.000156,97.2857,228.8164,158.1317,202.0018,0,U,69715,999,329,.75763E-3,.147209E-2,0
STARLINK-38060,2026-147N,2026-07-11T14:45:59.701248,15.80832449,.0001985,97.2880,228.8114,101.9510,258.1981,0,U,69716,999,329,.14129E-2,.279567E-2,0
STARLINK-38040,2026-147P,2026-07-11T20:49:31.256832,15.80888438,.0001516,97.2833,229.0824,105.5449,254.5987,0,U,69717,999,333,.67967E-3,.13248E-2,0
STARLINK-37989,2026-147Q,2026-07-10T12:53:35.554848,15.81725931,.000176,97.2849,227.6798,163.9316,196.2009,0,U,69718,999,312,.15133E-2,.313152E-2,0
STARLINK-38039,2026-147R,2026-07-10T12:53:07.505952,15.81001041,.00012944,97.2855,227.6808,335.4308,24.6899,0,U,69719,999,312,.17182608E-2,.345258E-2,0
STARLINK-38003,2026-147S,2026-07-11T14:41:39.486912,15.80849704,.0001497,97.2838,228.8191,129.8381,230.3019,0,U,69720,999,329,.58602E-3,.113759E-2,0
STARLINK-37915,2026-147U,2026-07-11T14:39:29.968128,15.80901954,.0001195,97.2855,228.8240,79.4953,280.6450,0,U,69722,999,329,.91727E-3,.179933E-2,0
STARLINK-38007,2026-147V,2026-07-11T19:16:12.453024,15.82279734,.0004672,97.2819,229.0189,283.2429,76.8319,0,U,69723,999,332,.1451E-1,.3453267E-1,0
STARLINK-38008,2026-147W,2026-07-11T16:08:28.890240,15.80841230,.0001369,97.2839,228.8908,122.6606,237.4795,0,U,69724,999,330,.74609E-3,.145343E-2,0
STARLINK-38021,2026-147X,2026-07-11T16:07:24.626784,15.80995338,.0002262,97.2836,228.8976,1.4335,358.6939,0,U,69725,999,330,.17324E-2,.348122E-2,0
SXM-11,2026-148A,2026-07-11T04:39:00.608256,1.00471175,.0001165,0.1241,265.9539,38.0982,293.8842,0,U,69728,999,28,0,-.9E-7,0
